[{"OBJECT_NAME":"ORBCOMM FM109","OBJECT_ID":"2014-040A","EPOCH":"2026-03-09T20:32:40.283520","MEAN_MOTION":14.58723838,"ECCENTRICITY":0.00013699,"INCLINATION":47.0026,"RA_OF_ASC_NODE":201.0749,"ARG_OF_PERICENTER":153.2814,"MEAN_ANOMALY":206.8143,"EPHEMERIS_TYPE":0,"CLASSIFICATION_TYPE":"U","NORAD_CAT_ID":40086,"ELEMENT_SET_NO":999,"REV_AT_EPOCH":61984,"BSTAR":0.00020185652,"MEAN_MOTION_DOT":7.8e-6,"MEAN_MOTION_DDOT":0},{"OBJECT_NAME":"FENGYUN 1C DEB","OBJECT_ID":"1999-025BWX","EPOCH":"2026-03-09T06:24:55.596960","MEAN_MOTION":14.65766255,"ECCENTRICITY":0.00307227,"INCLINATION":98.6259,"RA_OF_ASC_NODE":185.9167,"ARG_OF_PERICENTER":62.0885,"MEAN_ANOMALY":298.3422,"EPHEMERIS_TYPE":0,"CLASSIFICATION_TYPE":"U","NORAD_CAT_ID":31508,"ELEMENT_SET_NO":999,"REV_AT_EPOCH":98190,"BSTAR":0.0032136871,"MEAN_MOTION_DOT":0.00017627,"MEAN_MOTION_DDOT":0}]
